{
  "links" : {
    "next" : "https://api.nasa.gov/neo/rest/v1/feed?start_date=2011-12-09&end_date=2011-12-09&detailed=true&api_key=t0TVs3DtDT2H8Oy2Zy8m2eVrNsAVKAexjcZXUckd",
    "prev" : "https://api.nasa.gov/neo/rest/v1/feed?start_date=2011-12-07&end_date=2011-12-07&detailed=true&api_key=t0TVs3DtDT2H8Oy2Zy8m2eVrNsAVKAexjcZXUckd",
    "self" : "https://api.nasa.gov/neo/rest/v1/feed?start_date=2011-12-08&end_date=2011-12-08&detailed=true&api_key=t0TVs3DtDT2H8Oy2Zy8m2eVrNsAVKAexjcZXUckd"
  },
  "element_count" : 8,
  "near_earth_objects" : {
    "2011-12-08" : [ {
      "links" : {
        "self" : "https://api.nasa.gov/neo/rest/v1/neo/2275714?api_key=t0TVs3DtDT2H8Oy2Zy8m2eVrNsAVKAexjcZXUckd"
      },
      "neo_reference_id" : "2275714",
      "name" : "275714 (2000 YH4)",
      "nasa_jpl_url" : "http://ssd.jpl.nasa.gov/sbdb.cgi?sstr=2275714",
      "absolute_magnitude_h" : 18.7,
      "estimated_diameter" : {
        "kilometers" : {
          "estimated_diameter_min" : 0.4836764882,
          "estimated_diameter_max" : 1.0815335068
        },
        "meters" : {
          "estimated_diameter_min" : 483.6764882185,
          "estimated_diameter_max" : 1081.533506775
        },
        "miles" : {
          "estimated_diameter_min" : 0.3005425432,
          "estimated_diameter_max" : 0.6720335566
        },
        "feet" : {
          "estimated_diameter_min" : 1586.8651696069,
          "estimated_diameter_max" : 3548.3383903678
        }
      },
      "is_potentially_hazardous_asteroid" : false,
      "close_approach_data" : [ {
        "close_approach_date" : "2011-12-08",
        "epoch_date_close_approach" : 1323331200000,
        "relative_velocity" : {
          "kilometers_per_second" : "9.8940318252",
          "kilometers_per_hour" : "35618.5145708694",
          "miles_per_hour" : "22131.9597898827"
        },
        "miss_distance" : {
          "astronomical" : "0.4630396826",
          "lunar" : "180.1224365234",
          "kilometers" : "69269752",
          "miles" : "43042228"
        },
        "orbiting_body" : "Earth"
      } ],
      "orbital_data" : {
        "orbit_id" : "45",
        "orbit_determination_date" : "2017-04-06 09:24:31",
        "orbit_uncertainty" : "0",
        "minimum_orbit_intersection" : ".0852757",
        "jupiter_tisserand_invariant" : "4.398",
        "epoch_osculation" : "2458000.5",
        "eccentricity" : ".4587568365853591",
        "semi_major_axis" : "1.489418854348552",
        "inclination" : "17.96889314424333",
        "ascending_node_longitude" : "85.59364660976208",
        "orbital_period" : "663.9321475938199",
        "perihelion_distance" : ".8061377723770202",
        "perihelion_argument" : "269.4625757455321",
        "aphelion_distance" : "2.172699936320083",
        "perihelion_time" : "2457809.988730388242",
        "mean_anomaly" : "103.2997984941543",
        "mean_motion" : ".542224083145678",
        "equinox" : "J2000"
      }
    }, {
      "links" : {
        "self" : "https://api.nasa.gov/neo/rest/v1/neo/2424482?api_key=t0TVs3DtDT2H8Oy2Zy8m2eVrNsAVKAexjcZXUckd"
      },
      "neo_reference_id" : "2424482",
      "name" : "424482 (2008 DG5)",
      "nasa_jpl_url" : "http://ssd.jpl.nasa.gov/sbdb.cgi?sstr=2424482",
      "absolute_magnitude_h" : 19.6,
      "estimated_diameter" : {
        "kilometers" : {
          "estimated_diameter_min" : 0.3195618867,
          "estimated_diameter_max" : 0.7145621017
        },
        "meters" : {
          "estimated_diameter_min" : 319.5618867213,
          "estimated_diameter_max" : 714.5621017269
        },
        "miles" : {
          "estimated_diameter_min" : 0.1985664891,
          "estimated_diameter_max" : 0.4440081677
        },
        "feet" : {
          "estimated_diameter_min" : 1048.4314204307,
          "estimated_diameter_max" : 2344.3639258298
        }
      },
      "is_potentially_hazardous_asteroid" : true,
      "close_approach_data" : [ {
        "close_approach_date" : "2011-12-08",
        "epoch_date_close_approach" : 1323331200000,
        "relative_velocity" : {
          "kilometers_per_second" : "8.2061638128",
          "kilometers_per_hour" : "29542.1897260063",
          "miles_per_hour" : "18356.3678328065"
        },
        "miss_distance" : {
          "astronomical" : "0.4756560797",
          "lunar" : "185.0302124023",
          "kilometers" : "71157136",
          "miles" : "44214996"
        },
        "orbiting_body" : "Earth"
      } ],
      "orbital_data" : {
        "orbit_id" : "43",
        "orbit_determination_date" : "2017-04-06 09:21:03",
        "orbit_uncertainty" : "0",
        "minimum_orbit_intersection" : ".0189655",
        "jupiter_tisserand_invariant" : "5.092",
        "epoch_osculation" : "2458000.5",
        "eccentricity" : ".2426568058903197",
        "semi_major_axis" : "1.255773245344306",
        "inclination" : "5.706730478866622",
        "ascending_node_longitude" : "244.0456597466255",
        "orbital_period" : "514.0025409585492",
        "perihelion_distance" : ".9510513207065359",
        "perihelion_argument" : "59.66308688314998",
        "aphelion_distance" : "1.560495169982076",
        "perihelion_time" : "2457793.087085612858",
        "mean_anomaly" : "145.2690273478486",
        "mean_motion" : ".7003856427025554",
        "equinox" : "J2000"
      }
    }, {
      "links" : {
        "self" : "https://api.nasa.gov/neo/rest/v1/neo/3589545?api_key=t0TVs3DtDT2H8Oy2Zy8m2eVrNsAVKAexjcZXUckd"
      },
      "neo_reference_id" : "3589545",
      "name" : "(2011 WP69)",
      "nasa_jpl_url" : "http://ssd.jpl.nasa.gov/sbdb.cgi?sstr=3589545",
      "absolute_magnitude_h" : 23.0,
      "estimated_diameter" : {
        "kilometers" : {
          "estimated_diameter_min" : 0.0667659413,
          "estimated_diameter_max" : 0.1492931834
        },
        "meters" : {
          "estimated_diameter_min" : 66.7659413495,
          "estimated_diameter_max" : 149.2931834393
        },
        "miles" : {
          "estimated_diameter_min" : 0.0414864197,
          "estimated_diameter_max" : 0.0927664547
        },
        "feet" : {
          "estimated_diameter_min" : 219.0483710172,
          "estimated_diameter_max" : 489.807047955
        }
      },
      "is_potentially_hazardous_asteroid" : false,
      "close_approach_data" : [ {
        "close_approach_date" : "2011-12-08",
        "epoch_date_close_approach" : 1323331200000,
        "relative_velocity" : {
          "kilometers_per_second" : "8.3298828884",
          "kilometers_per_hour" : "29987.5783982159",
          "miles_per_hour" : "18633.115033047"
        },
        "miss_distance" : {
          "astronomical" : "0.1069611365",
          "lunar" : "41.6078834534",
          "kilometers" : "16001159",
          "miles" : "9942659"
        },
        "orbiting_body" : "Earth"
      } ],
      "orbital_data" : {
        "orbit_id" : "20",
        "orbit_determination_date" : "2017-04-06 08:51:50",
        "orbit_uncertainty" : "6",
        "minimum_orbit_intersection" : ".107454",
        "jupiter_tisserand_invariant" : "4.099",
        "epoch_osculation" : "2458000.5",
        "eccentricity" : ".3632493786756392",
        "semi_major_axis" : "1.697432110137175",
        "inclination" : "13.69911788892199",
        "ascending_node_longitude" : "82.40506876958942",
        "orbital_period" : "807.7687487171791",
        "perihelion_distance" : "1.080840950785767",
        "perihelion_argument" : "340.8392753703155",
        "aphelion_distance" : "2.314023269488584",
        "perihelion_time" : "2458315.253774858293",
        "mean_anomaly" : "219.7230220543497",
        "mean_motion" : ".4456721067405957",
        "equinox" : "J2000"
      }
    } ]
  }
}